STARLINK-4676           
1 53598U 22104L   25128.42290371  .00000609  00000+0  56368-4 0  9991
2 53598  53.2162 174.2525 0001312  90.2940 269.8203 15.08839562148840
STARLINK-4677           
1 53600U 22104N   25129.08266563 -.00000274  00000+0  87022-6 0  9996
2 53600  53.2157 171.9558 0000931  90.3645 269.7453 15.08834631149341
STARLINK-4675           
1 53601U 22104P   25129.09635957  .00000764  00000+0  66054-4 0  9998
2 53601  53.2165 171.3481 0001300  91.5170 268.5971 15.08841271148942
STARLINK-4648           
1 53602U 22104Q   25128.37371241  .00001139  00000+0  89660-4 0  9997
2 53602  53.2156 169.6760 0001450  88.7821 271.3337 15.08840952149595
STARLINK-4692           
1 53603U 22104R   25128.39582152 -.00001764  00000+0 -92722-4 0  9994
2 53603  53.2166 169.8109 0002101 133.9249 226.1917 15.08848516149593
STARLINK-4690           
1 53604U 22104S   25128.43258353 -.00000412  00000+0 -78121-5 0  9990
2 53604  53.2160 169.3303 0001216  83.8589 276.2542 15.08835526149604
STARLINK-4693           
1 53605U 22104T   25128.42659361  .00000669  00000+0  60107-4 0  9990
2 53605  53.2163 174.2746 0001136  85.9902 274.1220 15.08835880149532
STARLINK-4590           
1 53606U 22104U   25128.39075204 -.00000440  00000+0 -95925-5 0  9991
2 53606  53.2159 164.7716 0001241  84.8899 275.2234 15.08835901149541
STARLINK-4591           
1 53607U 22104V   25128.38479050 -.00001826  00000+0 -96751-4 0  9994
2 53607  53.2167 169.7410 0001263  86.0355 274.0782 15.08816333149590
STARLINK-4647           
1 53608U 22104W   25128.39812516 -.00000222  00000+0  41266-5 0  9994
2 53608  53.2164 164.8198 0001362  94.0366 266.0782 15.08834160149542
STARLINK-4660           
1 53609U 22104X   25128.41784371  .00001405  00000+0  10638-3 0  9995
2 53609  53.2161 169.2375 0001428 101.2944 258.8208 15.08834780148912
STARLINK-4610           
1 53610U 22104Y   25128.39171158  .00000767  00000+0  66286-4 0  9998
2 53610  53.2162 164.7761 0001323  85.6550 274.4593 15.08820019149547
STARLINK-4650           
1 53611U 22104Z   25128.21926750  .00107539  00000+0  13525-2 0  9997
2 53611  53.1830 112.0051 0005398  35.5951 324.5421 15.58849929150390
STARLINK-4658           
1 53612U 22104AA  25128.91698690  .00000119  00000+0  25558-4 0  9991
2 53612  53.2164 162.3739 0001337  92.2255 267.8890 15.08838313149059
STARLINK-4655           
1 53613U 22104AB  25128.39444574 -.00000553  00000+0 -16692-4 0  9997
2 53613  53.2165 164.7966 0001246  90.0610 270.0525 15.08827323149543
STARLINK-4605           
1 53616U 22104AE  25128.38428604  .00000451  00000+0  46446-4 0  9990
2 53616  53.2160 154.5619 0001158  92.3649 267.7476 15.08835557149795
STARLINK-4609           
1 53619U 22104AH  25128.37969531 -.00000059  00000+0  14414-4 0  9996
2 53619  53.2165 164.7042 0001370  84.2074 275.9074 15.08839809149546
STARLINK-4615           
1 53620U 22104AJ  25129.09359897 -.00004442  00000+0 -26103-3 0  9994
2 53620  53.2177 161.3398 0002091 100.1882 259.9346 15.08851843149089
STARLINK-4608           
1 53621U 22104AK  25128.37601286 -.00000115  00000+0  10887-4 0  9992
2 53621  53.2162 164.6822 0001221  90.9755 269.1377 15.08842364149547
STARLINK-4568           
1 53622U 22104AL  25128.40909542  .00000840  00000+0  70844-4 0  9996
2 53622  53.2163 164.1793 0001155  86.5608 273.5516 15.08833581149663
STARLINK-4573           
1 53623U 22104AM  25128.36864468  .00000455  00000+0  46706-4 0  9991
2 53623  53.2160 164.6347 0001333  88.1642 271.9503 15.08837853149658
STARLINK-4596           
1 53624U 22104AN  25128.35759723  .00000763  00000+0  66035-4 0  9997
2 53624  53.2154 164.5678 0001225  83.6401 276.4731 15.08832966149654
STARLINK-4554           
1 53626U 22104AQ  25128.41275575  .00003377  00000+0  23008-3 0  9990
2 53626  53.2154 164.1990 0001036  81.6304 278.4805 15.08856064149670
STARLINK-4595           
1 53627U 22104AR  25128.42016311  .00002112  00000+0  15073-3 0  9992
2 53627  53.2158 164.2472 0001398  75.7086 284.4061 15.08840686149677
STARLINK-4600           
1 53628U 22104AS  25128.47165142 -.00000413  00000+0 -78799-5 0  9995
2 53628  53.2159 163.8591 0001223  87.6275 272.4857 15.08839049149687
STARLINK-4602           
1 53629U 22104AT  25129.07885793 -.00000874  00000+0 -36855-4 0  9991
2 53629  53.2162 161.2497 0001414  95.7645 264.3508 15.08840085149081
STARLINK-4598           
1 53630U 22104AU  25128.45150615  .00000244  00000+0  33447-4 0  9995
2 53630  53.2159 154.4600 0001210  49.8925 310.2173 15.08836387149982
STARLINK-4599           
1 53631U 22104AV  25128.40170189 -.00000143  00000+0  90796-5 0  9999
2 53631  53.2161 164.1364 0001373  84.9459 275.1690 15.08821689149671
STARLINK-4606           
1 53632U 22104AW  25129.23803947  .00001247  00000+0  96385-4 0  9991
2 53632  53.2158 150.8400 0001329  88.7456 271.3689 15.08847322149242
STARLINK-4593           
1 53633U 22104AX  25129.04302493  .00000878  00000+0  73284-4 0  9993
2 53633  53.2159 151.7544 0001347  94.6821 265.4325 15.08836269149211
