OBJECT_NAME,OBJECT_ID,EPOCH,MEAN_MOTION,ECCENTRICITY,INCLINATION,RA_OF_ASC_NODE,ARG_OF_PERICENTER,MEAN_ANOMALY,EPHEMERIS_TYPE,CLASSIFICATION_TYPE,NORAD_CAT_ID,ELEMENT_SET_NO,REV_AT_EPOCH,BSTAR,MEAN_MOTION_DOT,MEAN_MOTION_DDOT
STARLINK-4676,2022-104L,2025-05-08T10:08:58.880544,15.08839562,.0001312,53.2162,174.2525,90.2940,269.8203,0,U,53598,999,14884,.56368E-4,.609E-5,0
STARLINK-4677,2022-104N,2025-05-09T01:59:02.310432,15.08834631,.0000931,53.2157,171.9558,90.3645,269.7453,0,U,53600,999,14934,.87022E-6,-.274E-5,0
STARLINK-4675,2022-104P,2025-05-09T02:18:45.466848,15.08841271,.00013,53.2165,171.3481,91.5170,268.5971,0,U,53601,999,14894,.66054E-4,.764E-5,0
STARLINK-4648,2022-104Q,2025-05-08T08:58:08.752224,15.08840952,.000145,53.2156,169.6760,88.7821,271.3337,0,U,53602,999,14959,.8966E-4,.1139E-4,0
STARLINK-4692,2022-104R,2025-05-08T09:29:58.979328,15.08848516,.0002101,53.2166,169.8109,133.9249,226.1917,0,U,53603,999,14959,-.92722E-4,-.1764E-4,0
STARLINK-4690,2022-104S,2025-05-08T10:22:55.216992,15.08835526,.0001216,53.2160,169.3303,83.8589,276.2542,0,U,53604,999,14960,-.78121E-5,-.412E-5,0
STARLINK-4693,2022-104T,2025-05-08T10:14:17.687904,15.08835880,.0001136,53.2163,174.2746,85.9902,274.1220,0,U,53605,999,14953,.60107E-4,.669E-5,0
STARLINK-4590,2022-104U,2025-05-08T09:22:40.976256,15.08835901,.0001241,53.2159,164.7716,84.8899,275.2234,0,U,53606,999,14954,-.95925E-5,-.44E-5,0
STARLINK-4591,2022-104V,2025-05-08T09:14:05.899200,15.08816333,.0001263,53.2167,169.7410,86.0355,274.0782,0,U,53607,999,14959,-.96751E-4,-.1826E-4,0
STARLINK-4647,2022-104W,2025-05-08T09:33:18.013824,15.08834160,.0001362,53.2164,164.8198,94.0366,266.0782,0,U,53608,999,14954,.41266E-5,-.222E-5,0
STARLINK-4660,2022-104X,2025-05-08T10:01:41.696544,15.08834780,.0001428,53.2161,169.2375,101.2944,258.8208,0,U,53609,999,14891,.10638E-3,.1405E-4,0
STARLINK-4610,2022-104Y,2025-05-08T09:24:03.880512,15.08820019,.0001323,53.2162,164.7761,85.6550,274.4593,0,U,53610,999,14954,.66286E-4,.767E-5,0
STARLINK-4650,2022-104Z,2025-05-08T05:15:44.712000,15.58849929,.0005398,53.1830,112.0051,35.5951,324.5421,0,U,53611,999,15039,.13525E-2,.107539E-2,0
STARLINK-4658,2022-104AA,2025-05-08T22:00:27.668160,15.08838313,.0001337,53.2164,162.3739,92.2255,267.8890,0,U,53612,999,14905,.25558E-4,.119E-5,0
STARLINK-4655,2022-104AB,2025-05-08T09:28:00.111936,15.08827323,.0001246,53.2165,164.7966,90.0610,270.0525,0,U,53613,999,14954,-.16692E-4,-.553E-5,0
STARLINK-4605,2022-104AE,2025-05-08T09:13:22.313856,15.08835557,.0001158,53.2160,154.5619,92.3649,267.7476,0,U,53616,999,14979,.46446E-4,.451E-5,0
STARLINK-4609,2022-104AH,2025-05-08T09:06:45.674784,15.08839809,.000137,53.2165,164.7042,84.2074,275.9074,0,U,53619,999,14954,.14414E-4,-.59E-6,0
STARLINK-4615,2022-104AJ,2025-05-09T02:14:46.951008,15.08851843,.0002091,53.2177,161.3398,100.1882,259.9346,0,U,53620,999,14908,-.26103E-3,-.4442E-4,0
STARLINK-4608,2022-104AK,2025-05-08T09:01:27.511104,15.08842364,.0001221,53.2162,164.6822,90.9755,269.1377,0,U,53621,999,14954,.10887E-4,-.115E-5,0
STARLINK-4568,2022-104AL,2025-05-08T09:49:05.844288,15.08833581,.0001155,53.2163,164.1793,86.5608,273.5516,0,U,53622,999,14966,.70844E-4,.84E-5,0
STARLINK-4573,2022-104AM,2025-05-08T08:50:50.900352,15.08837853,.0001333,53.2160,164.6347,88.1642,271.9503,0,U,53623,999,14965,.46706E-4,.455E-5,0
STARLINK-4596,2022-104AN,2025-05-08T08:34:56.400672,15.08832966,.0001225,53.2154,164.5678,83.6401,276.4731,0,U,53624,999,14965,.66035E-4,.763E-5,0
STARLINK-4554,2022-104AQ,2025-05-08T09:54:22.096800,15.08856064,.0001036,53.2154,164.1990,81.6304,278.4805,0,U,53626,999,14967,.23008E-3,.3377E-4,0
STARLINK-4595,2022-104AR,2025-05-08T10:05:02.092704,15.08840686,.0001398,53.2158,164.2472,75.7086,284.4061,0,U,53627,999,14967,.15073E-3,.2112E-4,0
STARLINK-4600,2022-104AS,2025-05-08T11:19:10.682688,15.08839049,.0001223,53.2159,163.8591,87.6275,272.4857,0,U,53628,999,14968,-.78799E-5,-.413E-5,0
STARLINK-4602,2022-104AT,2025-05-09T01:53:33.325152,15.08840085,.0001414,53.2162,161.2497,95.7645,264.3508,0,U,53629,999,14908,-.36855E-4,-.874E-5,0
STARLINK-4598,2022-104AU,2025-05-08T10:50:10.131360,15.08836387,.000121,53.2159,154.4600,49.8925,310.2173,0,U,53630,999,14998,.33447E-4,.244E-5,0
STARLINK-4599,2022-104AV,2025-05-08T09:38:27.043296,15.08821689,.0001373,53.2161,164.1364,84.9459,275.1690,0,U,53631,999,14967,.90796E-5,-.143E-5,0
STARLINK-4606,2022-104AW,2025-05-09T05:42:46.610208,15.08847322,.0001329,53.2158,150.8400,88.7456,271.3689,0,U,53632,999,14924,.96385E-4,.1247E-4,0
STARLINK-4593,2022-104AX,2025-05-09T01:01:57.353952,15.08836269,.0001347,53.2159,151.7544,94.6821,265.4325,0,U,53633,999,14921,.73284E-4,.878E-5,0
